FENGYUN 1C DEB          
1 30406U 99025ADV 17345.86865372  .00000838  00000-0  10082-2 0  9995
2 30406  98.6054 207.9327 0300390   7.5532 120.9195 13.51686786536152
